{
  "type": "FeatureCollection",
  "features": [
    {
      "type": "Feature",
      "properties": {
        "norad_id": 46277,
        "name": "NEMO-HD",
        "group": "resource",
        "lat": 38.17459357244921,
        "lon": 49.956936588824085,
        "alt_km": 440.99436289325604,
        "timestamp": "2025-12-22T16:55:17.107937+00:00",
        "meta_object_name": "NEMO-HD",
        "meta_object_id": "2020-061F",
        "meta_epoch": "2025-12-22T05:50:31.767936",
        "meta_mean_motion": 15.40510477,
        "meta_eccentricity": 0.00012666,
        "meta_inclination": 97.2195,
        "meta_ra_of_asc_node": 55.2209,
        "meta_arg_of_pericenter": 52.8163,
        "meta_mean_anomaly": 307.3199,
        "meta_ephemeris_type": 0,
        "meta_classification_type": "U",
        "meta_norad_cat_id": 46277,
        "meta_element_set_no": 999,
        "meta_rev_at_epoch": 29470,
        "meta_bstar": 0.00028470803,
        "meta_mean_motion_dot": 0.00011473,
        "meta_mean_motion_ddot": 0,
        "tle_line1": "1 46277U 20061F   25356.24342324  .00011473  00000+0  28471-3 0  9990",
        "tle_line2": "2 46277  97.2195  55.2209 0001266  52.8163 307.3199 15.40510477294702"
      },
      "geometry": {
        "type": "Point",
        "coordinates": [
          49.956936588824085,
          38.17459357244921
        ]
      }
    },
    {
      "type": "Feature",
      "properties": {
        "norad_id": 46984,
        "name": "SENTINEL-6A",
        "group": "resource",
        "lat": -28.782430424914722,
        "lon": 127.4712593993113,
        "alt_km": 1339.515329969171,
        "timestamp": "2025-12-22T16:55:17.107947+00:00",
        "meta_object_name": "SENTINEL-6A",
        "meta_object_id": "2020-086A",
        "meta_epoch": "2025-12-22T03:58:12.639648",
        "meta_mean_motion": 12.80930818,
        "meta_eccentricity": 0.00077343,
        "meta_inclination": 66.0396,
        "meta_ra_of_asc_node": 142.7305,
        "meta_arg_of_pericenter": 269.4103,
        "meta_mean_anomaly": 90.6026,
        "meta_ephemeris_type": 0,
        "meta_classification_type": "U",
        "meta_norad_cat_id": 46984,
        "meta_element_set_no": 999,
        "meta_rev_at_epoch": 23765,
        "meta_bstar": -4.6549991e-05,
        "meta_mean_motion_dot": -7.2e-07,
        "meta_mean_motion_ddot": 0,
        "tle_line1": "1 46984U 20086A   25356.16542407 -.00000072  00000+0 -46550-4 0  9991",
        "tle_line2": "2 46984  66.0396 142.7305 0007734 269.4103  90.6026 12.80930818237657"
      },
      "geometry": {
        "type": "Point",
        "coordinates": [
          127.4712593993113,
          -28.782430424914722
        ]
      }
    },
    {
      "type": "Feature",
      "properties": {
        "norad_id": 48079,
        "name": "GAOFEN-12 02",
        "group": "resource",
        "lat": 19.071286361074637,
        "lon": 173.44523965174736,
        "alt_km": 626.9577949554196,
        "timestamp": "2025-12-22T16:55:17.107958+00:00",
        "meta_object_name": "GAOFEN-12 02",
        "meta_object_id": "2021-026A",
        "meta_epoch": "2025-12-22T06:28:03.212832",
        "meta_mean_motion": 14.8068603,
        "meta_eccentricity": 0.00035953,
        "meta_inclination": 97.9855,
        "meta_ra_of_asc_node": 350.23,
        "meta_arg_of_pericenter": 82.0899,
        "meta_mean_anomaly": 278.0721,
        "meta_ephemeris_type": 0,
        "meta_classification_type": "U",
        "meta_norad_cat_id": 48079,
        "meta_element_set_no": 999,
        "meta_rev_at_epoch": 25558,
        "meta_bstar": 6.8483833e-05,
        "meta_mean_motion_dot": 4.74e-06,
        "meta_mean_motion_ddot": 0,
        "tle_line1": "1 48079U 21026A   25356.26948163  .00000474  00000+0  68484-4 0  9997",
        "tle_line2": "2 48079  97.9855 350.2300 0003595  82.0899 278.0721 14.80686030255582"
      },
      "geometry": {
        "type": "Point",
        "coordinates": [
          173.44523965174736,
          19.071286361074637
        ]
      }
    },
    {
      "type": "Feature",
      "properties": {
        "norad_id": 48268,
        "name": "PLEIADES NEO 3",
        "group": "resource",
        "lat": -79.48254635044192,
        "lon": -159.365147431448,
        "alt_km": 632.3642368342998,
        "timestamp": "2025-12-22T16:55:17.107968+00:00",
        "meta_object_name": "PLEIADES NEO 3",
        "meta_object_id": "2021-034A",
        "meta_epoch": "2025-12-22T06:00:47.635776",
        "meta_mean_motion": 14.81675064,
        "meta_eccentricity": 0.00014005,
        "meta_inclination": 97.8949,
        "meta_ra_of_asc_node": 68.5555,
        "meta_arg_of_pericenter": 90.0616,
        "meta_mean_anomaly": 270.0757,
        "meta_ephemeris_type": 0,
        "meta_classification_type": "U",
        "meta_norad_cat_id": 48268,
        "meta_element_set_no": 999,
        "meta_rev_at_epoch": 25145,
        "meta_bstar": 5.9676016e-05,
        "meta_mean_motion_dot": 4.18e-06,
        "meta_mean_motion_ddot": 0,
        "tle_line1": "1 48268U 21034A   25356.25055134  .00000418  00000+0  59676-4 0  9993",
        "tle_line2": "2 48268  97.8949  68.5555 0001400  90.0616 270.0757 14.81675064251454"
      },
      "geometry": {
        "type": "Point",
        "coordinates": [
          -159.365147431448,
          -79.48254635044192
        ]
      }
    },
    {
      "type": "Feature",
      "properties": {
        "norad_id": 49070,
        "name": "PLEIADES NEO 4",
        "group": "resource",
        "lat": 79.4898008218318,
        "lon": 20.58357310882685,
        "alt_km": 615.7594644530036,
        "timestamp": "2025-12-22T16:55:17.107979+00:00",
        "meta_object_name": "PLEIADES NEO 4",
        "meta_object_id": "2021-073E",
        "meta_epoch": "2025-12-20T17:32:43.601280",
        "meta_mean_motion": 14.81672177,
        "meta_eccentricity": 0.00013249,
        "meta_inclination": 97.8951,
        "meta_ra_of_asc_node": 67.0538,
        "meta_arg_of_pericenter": 89.6187,
        "meta_mean_anomaly": 270.5178,
        "meta_ephemeris_type": 0,
        "meta_classification_type": "U",
        "meta_norad_cat_id": 49070,
        "meta_element_set_no": 999,
        "meta_rev_at_epoch": 23494,
        "meta_bstar": -3.6645539e-05,
        "meta_mean_motion_dot": -3.4e-06,
        "meta_mean_motion_ddot": 0,
        "tle_line1": "1 49070U 21073E   25354.73106020 -.00000340  00000+0 -36646-4 0  9998",
        "tle_line2": "2 49070  97.8951  67.0538 0001324  89.6187 270.5178 14.81672177234945"
      },
      "geometry": {
        "type": "Point",
        "coordinates": [
          20.58357310882685,
          79.4898008218318
        ]
      }
    },
    {
      "type": "Feature",
      "properties": {
        "norad_id": 49260,
        "name": "LANDSAT 9",
        "group": "resource",
        "lat": -59.2522227821582,
        "lon": 78.71348530333108,
        "alt_km": 710.3250104860517,
        "timestamp": "2025-12-22T16:55:17.107989+00:00",
        "meta_object_name": "LANDSAT 9",
        "meta_object_id": "2021-088A",
        "meta_epoch": "2025-12-22T04:00:46.820448",
        "meta_mean_motion": 14.57107311,
        "meta_eccentricity": 0.00010969,
        "meta_inclination": 98.2082,
        "meta_ra_of_asc_node": 64.1411,
        "meta_arg_of_pericenter": 92.1873,
        "meta_mean_anomaly": 267.9451,
        "meta_ephemeris_type": 0,
        "meta_classification_type": "U",
        "meta_norad_cat_id": 49260,
        "meta_element_set_no": 999,
        "meta_rev_at_epoch": 22522,
        "meta_bstar": 0.00010286136,
        "meta_mean_motion_dot": 4.18e-06,
        "meta_mean_motion_ddot": 0,
        "tle_line1": "1 49260U 21088A   25356.16720857  .00000418  00000+0  10286-3 0  9999",
        "tle_line2": "2 49260  98.2082  64.1411 0001096  92.1873 267.9451 14.57107311225222"
      },
      "geometry": {
        "type": "Point",
        "coordinates": [
          78.71348530333108,
          -59.2522227821582
        ]
      }
    },
    {
      "type": "Feature",
      "properties": {
        "norad_id": 51444,
        "name": "CSG-2",
        "group": "resource",
        "lat": 46.43478971946112,
        "lon": 6.2500757015843575,
        "alt_km": 617.8245119685789,
        "timestamp": "2025-12-22T16:55:17.107999+00:00",
        "meta_object_name": "CSG-2",
        "meta_object_id": "2022-008A",
        "meta_epoch": "2025-12-22T06:36:08.564832",
        "meta_mean_motion": 14.82153014,
        "meta_eccentricity": 0.00014913,
        "meta_inclination": 97.8799,
        "meta_ra_of_asc_node": 177.454,
        "meta_arg_of_pericenter": 83.9093,
        "meta_mean_anomaly": 276.229,
        "meta_ephemeris_type": 0,
        "meta_classification_type": "U",
        "meta_norad_cat_id": 51444,
        "meta_element_set_no": 999,
        "meta_rev_at_epoch": 21038,
        "meta_bstar": 7.9936608e-05,
        "meta_mean_motion_dot": 5.84e-06,
        "meta_mean_motion_ddot": 0,
        "tle_line1": "1 51444U 22008A   25356.27509913  .00000584  00000+0  79937-4 0  9992",
        "tle_line2": "2 51444  97.8799 177.4540 0001491  83.9093 276.2290 14.82153014210385"
      },
      "geometry": {
        "type": "Point",
        "coordinates": [
          6.2500757015843575,
          46.43478971946112
        ]
      }
    }
  ]
}